{
"type": "FeatureCollection",
"name": "Polynesie",
"crs": { "type": "name", "properties": { "name": "urn:ogc:def:crs:OGC:1.3:CRS84" } },
"features": [
{ "type": "Feature", "properties": { "FIPS": "AQ", "ISO2": "AS", "ISO3": "ASM", "UN": 16, "NAME": "American Samoa", "AREA": 20, "POP2005": 64051, "REGION": 9, "SUBREGION": 61, "LON": -170.73, "LAT": -14.318 }, "geometry": { "type": "MultiPolygon", "coordinates": [ [ [ [ -170.542511, -14.297503 ], [ -170.546112, -14.298613 ], [ -170.550293, -14.298334 ], [ -170.555878, -14.295 ], [ -170.560822, -14.287781 ], [ -170.54837, -14.282501 ], [ -170.540039, -14.283892 ], [ -170.536682, -14.288891 ], [ -170.542511, -14.297503 ] ] ], [ [ [ -170.637268, -14.289446 ], [ -170.743896, -14.375555 ], [ -170.74942, -14.373888 ], [ -170.766449, -14.363611 ], [ -170.822266, -14.329447 ], [ -170.826111, -14.325003 ], [ -170.822266, -14.320278 ], [ -170.809174, -14.308058 ], [ -170.800293, -14.300556 ], [ -170.795013, -14.298058 ], [ -170.681671, -14.258059 ], [ -170.66806, -14.255556 ], [ -170.660004, -14.255281 ], [ -170.570282, -14.252779 ], [ -170.565552, -14.255836 ], [ -170.560028, -14.265837 ], [ -170.560822, -14.269169 ], [ -170.563324, -14.272503 ], [ -170.578613, -14.279167 ], [ -170.637268, -14.289446 ] ] ], [ [ [ -169.444489, -14.261667 ], [ -169.50946, -14.276669 ], [ -169.513062, -14.275833 ], [ -169.517792, -14.272779 ], [ -169.521698, -14.268333 ], [ -169.535553, -14.242779 ], [ -169.537231, -14.23778 ], [ -169.536133, -14.231668 ], [ -169.533936, -14.229721 ], [ -169.522278, -14.226946 ], [ -169.51532, -14.226665 ], [ -169.449768, -14.226391 ], [ -169.445587, -14.226665 ], [ -169.439453, -14.231668 ], [ -169.438324, -14.256668 ], [ -169.440002, -14.260557 ], [ -169.444489, -14.261667 ] ] ], [ [ [ -169.62558, -14.189722 ], [ -169.631409, -14.190834 ], [ -169.641693, -14.186111 ], [ -169.644196, -14.181112 ], [ -169.644745, -14.176111 ], [ -169.640564, -14.171667 ], [ -169.626129, -14.166945 ], [ -169.621948, -14.168612 ], [ -169.621948, -14.176392 ], [ -169.623077, -14.183889 ], [ -169.62558, -14.189722 ] ] ], [ [ [ -169.685577, -14.191944 ], [ -169.686951, -14.191944 ], [ -169.693054, -14.188889 ], [ -169.694153, -14.18528 ], [ -169.694153, -14.173613 ], [ -169.690857, -14.167501 ], [ -169.687256, -14.166389 ], [ -169.683075, -14.166666 ], [ -169.665588, -14.172777 ], [ -169.662231, -14.175001 ], [ -169.65976, -14.179169 ], [ -169.65976, -14.180555 ], [ -169.661438, -14.183332 ], [ -169.681122, -14.191669 ], [ -169.685577, -14.191944 ] ] ] ] } },
{ "type": "Feature", "properties": { "FIPS": "CW", "ISO2": "CK", "ISO3": "COK", "UN": 184, "NAME": "Cook Islands", "AREA": 24, "POP2005": 13984, "REGION": 9, "SUBREGION": 61, "LON": -159.782, "LAT": -21.219 }, "geometry": { "type": "MultiPolygon", "coordinates": [ [ [ [ -157.890564, -21.938053 ], [ -157.928894, -21.940834 ], [ -157.945038, -21.940559 ], [ -157.948883, -21.93861 ], [ -157.963043, -21.923889 ], [ -157.964478, -21.916946 ], [ -157.964478, -21.91222 ], [ -157.962799, -21.904167 ], [ -157.95752, -21.895283 ], [ -157.947784, -21.888058 ], [ -157.929993, -21.879444 ], [ -157.921967, -21.880283 ], [ -157.917511, -21.88306 ], [ -157.886719, -21.918331 ], [ -157.883087, -21.923889 ], [ -157.882507, -21.927223 ], [ -157.883087, -21.931393 ], [ -157.884766, -21.935558 ], [ -157.890564, -21.938053 ] ] ], [ [ [ -159.741119, -21.254169 ], [ -159.746979, -21.256668 ], [ -159.79364, -21.252785 ], [ -159.830292, -21.249168 ], [ -159.834747, -21.247776 ], [ -159.838348, -21.24361 ], [ -159.841675, -21.234722 ], [ -159.835541, -21.202782 ], [ -159.833893, -21.195831 ], [ -159.830292, -21.191113 ], [ -159.824188, -21.18861 ], [ -159.78833, -21.1875 ], [ -159.759766, -21.191669 ], [ -159.752502, -21.193054 ], [ -159.732788, -21.222778 ], [ -159.733063, -21.229721 ], [ -159.737213, -21.250835 ], [ -159.741119, -21.254169 ] ] ], [ [ [ -157.316437, -20.188053 ], [ -157.31723, -20.188892 ], [ -157.328064, -20.185837 ], [ -157.327789, -20.184538 ], [ -157.334442, -20.180283 ], [ -157.337494, -20.176949 ], [ -157.3414, -20.150002 ], [ -157.341095, -20.141949 ], [ -157.338348, -20.135838 ], [ -157.332214, -20.13306 ], [ -157.320038, -20.135281 ], [ -157.315002, -20.137505 ], [ -157.309174, -20.147781 ], [ -157.305878, -20.166389 ], [ -157.308929, -20.171112 ], [ -157.313904, -20.173615 ], [ -157.316986, -20.178616 ], [ -157.316437, -20.188053 ] ] ], [ [ [ -158.098358, -20.016113 ], [ -158.116669, -20.019173 ], [ -158.126678, -20.009445 ], [ -158.130859, -19.999725 ], [ -158.129974, -19.990833 ], [ -158.126923, -19.980556 ], [ -158.123871, -19.976387 ], [ -158.118591, -19.973057 ], [ -158.113647, -19.971111 ], [ -158.106934, -19.970554 ], [ -158.094757, -19.974171 ], [ -158.085297, -19.981941 ], [ -158.08197, -19.986942 ], [ -158.08139, -19.996387 ], [ -158.084991, -20.00806 ], [ -158.092529, -20.013336 ], [ -158.098358, -20.016113 ] ] ], [ [ [ -158.27948, -19.817783 ], [ -158.262512, -19.836666 ], [ -158.278351, -19.838333 ], [ -158.281952, -19.836117 ], [ -158.285553, -19.836948 ], [ -158.291382, -19.833332 ], [ -158.292816, -19.831116 ], [ -158.293335, -19.823612 ], [ -158.291962, -19.819721 ], [ -158.286682, -19.816395 ], [ -158.27948, -19.817783 ] ] ], [ [ [ -157.708649, -19.853054 ], [ -157.713043, -19.857227 ], [ -157.718872, -19.851665 ], [ -157.740265, -19.821117 ], [ -157.741364, -19.814167 ], [ -157.739197, -19.807507 ], [ -157.718323, -19.774174 ], [ -157.713928, -19.770283 ], [ -157.709442, -19.771667 ], [ -157.70752, -19.77639 ], [ -157.703369, -19.833332 ], [ -157.704163, -19.840282 ], [ -157.708649, -19.853054 ] ] ], [ [ [ -158.92865, -19.270283 ], [ -158.934479, -19.273617 ], [ -158.943909, -19.27195 ], [ -158.955017, -19.250561 ], [ -158.955017, -19.246387 ], [ -158.951935, -19.242496 ], [ -158.946686, -19.240559 ], [ -158.941681, -19.242779 ], [ -158.924713, -19.260284 ], [ -158.925049, -19.266396 ], [ -158.92865, -19.270283 ] ] ], [ [ [ -159.78833, -18.890556 ], [ -159.794189, -18.893333 ], [ -159.799164, -18.890282 ], [ -159.803345, -18.880001 ], [ -159.803345, -18.861389 ], [ -159.800293, -18.849171 ], [ -159.791382, -18.842503 ], [ -159.78421, -18.841393 ], [ -159.779175, -18.843616 ], [ -159.777802, -18.845001 ], [ -159.785309, -18.888058 ], [ -159.78833, -18.890556 ] ] ], [ [ [ -163.16333, -18.089443 ], [ -163.169464, -18.091949 ], [ -163.172241, -18.08889 ], [ -163.170319, -18.079449 ], [ -163.15863, -18.057224 ], [ -163.154724, -18.056667 ], [ -163.152222, -18.062225 ], [ -163.153351, -18.069721 ], [ -163.157257, -18.080559 ], [ -163.16333, -18.089443 ] ] ], [ [ [ -165.422241, -11.548334 ], [ -165.43222, -11.551947 ], [ -165.436401, -11.54917 ], [ -165.4375, -11.542225 ], [ -165.435028, -11.5375 ], [ -165.427826, -11.533611 ], [ -165.423096, -11.533335 ], [ -165.419464, -11.534166 ], [ -165.414185, -11.537781 ], [ -165.415039, -11.541945 ], [ -165.422241, -11.548334 ] ] ], [ [ [ -165.82666, -10.888334 ], [ -165.841675, -10.890837 ], [ -165.848602, -10.890556 ], [ -165.850281, -10.884169 ], [ -165.84726, -10.881111 ], [ -165.831146, -10.876945 ], [ -165.826935, -10.877777 ], [ -165.825867, -10.882221 ], [ -165.82666, -10.888334 ] ] ], [ [ [ -161.022827, -10.431391 ], [ -161.026123, -10.432503 ], [ -161.031708, -10.429724 ], [ -161.043335, -10.419724 ], [ -161.046661, -10.414722 ], [ -161.051147, -10.403612 ], [ -161.051697, -10.396948 ], [ -161.048615, -10.392778 ], [ -161.042511, -10.395 ], [ -161.023071, -10.423058 ], [ -161.021149, -10.428059 ], [ -161.022827, -10.431391 ] ] ], [ [ [ -160.975586, -10.395555 ], [ -160.978333, -10.396389 ], [ -160.98114, -10.396112 ], [ -160.993347, -10.385557 ], [ -161.012512, -10.355556 ], [ -161.012512, -10.352777 ], [ -161.001404, -10.355833 ], [ -160.987762, -10.365833 ], [ -160.979736, -10.372223 ], [ -160.973602, -10.378057 ], [ -160.97168, -10.386948 ], [ -160.973358, -10.393614 ], [ -160.975586, -10.395555 ] ] ], [ [ [ -161.084442, -10.041945 ], [ -161.088593, -10.045835 ], [ -161.093323, -10.043612 ], [ -161.09613, -10.036669 ], [ -161.090576, -10.018333 ], [ -161.082764, -10.010281 ], [ -161.078369, -10.006947 ], [ -161.072266, -10.008059 ], [ -161.072266, -10.011948 ], [ -161.074432, -10.018059 ], [ -161.084442, -10.041945 ] ] ], [ [ [ -157.941681, -8.982502 ], [ -157.946686, -8.985279 ], [ -157.962494, -8.984999 ], [ -157.97226, -8.981943 ], [ -157.991943, -8.97139 ], [ -158.00589, -8.960835 ], [ -158.009766, -8.956667 ], [ -158.008362, -8.951389 ], [ -158.003387, -8.948057 ], [ -157.996399, -8.950001 ], [ -157.943054, -8.975834 ], [ -157.940308, -8.979723 ], [ -157.941681, -8.982502 ] ] ] ] } },
{ "type": "Feature", "properties": { "FIPS": "FP", "ISO2": "PF", "ISO3": "PYF", "UN": 258, "NAME": "French Polynesia", "AREA": 366, "POP2005": 255632, "REGION": 9, "SUBREGION": 61, "LON": -149.462, "LAT": -17.626 }, "geometry": { "type": "MultiPolygon", "coordinates": [ [ [ [ -143.482483, -27.914448 ], [ -143.487762, -27.915554 ], [ -143.491699, -27.913887 ], [ -143.50946, -27.896114 ], [ -143.508911, -27.890839 ], [ -143.502838, -27.889999 ], [ -143.496979, -27.891392 ], [ -143.483917, -27.900276 ], [ -143.48114, -27.904449 ], [ -143.47998, -27.909721 ], [ -143.482483, -27.914448 ] ] ], [ [ [ -144.307526, -27.642776 ], [ -144.31366, -27.64389 ], [ -144.325562, -27.640556 ], [ -144.334198, -27.635281 ], [ -144.337799, -27.632221 ], [ -144.343323, -27.623894 ], [ -144.345306, -27.619167 ], [ -144.347504, -27.608337 ], [ -144.34668, -27.596394 ], [ -144.342224, -27.565002 ], [ -144.339722, -27.560558 ], [ -144.336426, -27.557224 ], [ -144.331696, -27.555 ], [ -144.324738, -27.553333 ], [ -144.31366, -27.55584 ], [ -144.309174, -27.55806 ], [ -144.294464, -27.565559 ], [ -144.287537, -27.573338 ], [ -144.285553, -27.577499 ], [ -144.285004, -27.581116 ], [ -144.285553, -27.587784 ], [ -144.299469, -27.635838 ], [ -144.30365, -27.640282 ], [ -144.307526, -27.642776 ] ] ], [ [ [ -147.689758, -23.881668 ], [ -147.696381, -23.882504 ], [ -147.70224, -23.881668 ], [ -147.713928, -23.878059 ], [ -147.72168, -23.871387 ], [ -147.720306, -23.865276 ], [ -147.705597, -23.858894 ], [ -147.694153, -23.856113 ], [ -147.68222, -23.854446 ], [ -147.656158, -23.852779 ], [ -147.648621, -23.853336 ], [ -147.646149, -23.85778 ], [ -147.648621, -23.862225 ], [ -147.665833, -23.873337 ], [ -147.689758, -23.881668 ] ] ], [ [ [ -149.483337, -23.401943 ], [ -149.503632, -23.403053 ], [ -149.514496, -23.40139 ], [ -149.518097, -23.398609 ], [ -149.526672, -23.380001 ], [ -149.52533, -23.373894 ], [ -149.517242, -23.367226 ], [ -149.513367, -23.364723 ], [ -149.507782, -23.362499 ], [ -149.502502, -23.360832 ], [ -149.491119, -23.358894 ], [ -149.477783, -23.358612 ], [ -149.463043, -23.359722 ], [ -149.457214, -23.361671 ], [ -149.453369, -23.365276 ], [ -149.446136, -23.384445 ], [ -149.445831, -23.390556 ], [ -149.448639, -23.395832 ], [ -149.453369, -23.397499 ], [ -149.483337, -23.401943 ] ] ], [ [ [ -135.051941, -23.163887 ], [ -135.058044, -23.165005 ], [ -135.06308, -23.163055 ], [ -135.06308, -23.156113 ], [ -135.059174, -23.152782 ], [ -135.041962, -23.141666 ], [ -135.035858, -23.140282 ], [ -135.031708, -23.143333 ], [ -135.028656, -23.147499 ], [ -135.026672, -23.152225 ], [ -135.028351, -23.157501 ], [ -135.051941, -23.163887 ] ] ], [ [ [ -134.985535, -23.139442 ], [ -134.991699, -23.140556 ], [ -134.998871, -23.139725 ], [ -135.0, -23.139065 ], [ -135.008362, -23.134171 ], [ -135.014191, -23.126667 ], [ -135.015564, -23.12167 ], [ -135.011719, -23.118336 ], [ -134.98642, -23.103889 ], [ -134.976654, -23.098614 ], [ -134.953369, -23.086948 ], [ -134.94809, -23.084999 ], [ -134.941406, -23.085838 ], [ -134.941681, -23.092777 ], [ -134.944733, -23.096668 ], [ -134.975037, -23.130001 ], [ -134.985535, -23.139442 ] ] ], [ [ [ -152.860016, -22.656387 ], [ -152.866669, -22.656387 ], [ -152.873871, -22.655003 ], [ -152.878052, -22.645832 ], [ -152.87973, -22.639999 ], [ -152.878357, -22.634727 ], [ -152.87558, -22.630283 ], [ -152.855286, -22.60667 ], [ -152.850586, -22.604446 ], [ -152.845551, -22.605003 ], [ -152.840576, -22.607506 ], [ -152.830597, -22.61861 ], [ -152.826416, -22.628059 ], [ -152.826416, -22.634171 ], [ -152.829163, -22.638058 ], [ -152.839722, -22.648609 ], [ -152.849152, -22.653336 ], [ -152.860016, -22.656387 ] ] ], [ [ [ -151.36557, -22.518616 ], [ -151.37085, -22.519726 ], [ -151.396393, -22.451668 ], [ -151.396698, -22.445557 ], [ -151.395844, -22.438892 ], [ -151.387817, -22.425835 ], [ -151.381104, -22.424999 ], [ -151.376129, -22.427502 ], [ -151.372223, -22.431393 ], [ -151.353638, -22.454166 ], [ -151.350281, -22.464725 ], [ -151.350006, -22.476387 ], [ -151.352783, -22.488335 ], [ -151.361969, -22.514172 ], [ -151.36557, -22.518616 ] ] ], [ [ [ -138.714722, -22.271667 ], [ -138.762512, -22.286388 ], [ -138.773071, -22.275833 ], [ -138.798615, -22.231941 ], [ -138.799164, -22.22583 ], [ -138.796661, -22.22028 ], [ -138.782257, -22.207226 ], [ -138.773071, -22.201942 ], [ -138.768646, -22.200275 ], [ -138.761963, -22.199722 ], [ -138.753937, -22.200832 ], [ -138.743591, -22.204449 ], [ -138.715027, -22.22583 ], [ -138.70752, -22.239166 ], [ -138.70639, -22.24472 ], [ -138.707764, -22.264446 ], [ -138.711121, -22.269173 ], [ -138.714722, -22.271667 ] ] ], [ [ [ -140.609467, -21.71917 ], [ -140.614746, -21.720837 ], [ -140.643341, -21.719723 ], [ -140.655029, -21.716393 ], [ -140.665039, -21.711948 ], [ -140.66864, -21.708332 ], [ -140.671112, -21.704166 ], [ -140.676147, -21.681393 ], [ -140.675293, -21.668331 ], [ -140.673615, -21.663055 ], [ -140.666687, -21.655834 ], [ -140.661987, -21.6525 ], [ -140.652222, -21.648891 ], [ -140.645844, -21.650002 ], [ -140.642242, -21.653336 ], [ -140.62085, -21.681667 ], [ -140.612762, -21.693611 ], [ -140.607239, -21.701942 ], [ -140.604431, -21.708889 ], [ -140.60556, -21.715836 ], [ -140.609467, -21.71917 ] ] ], [ [ [ -144.956146, -19.923332 ], [ -144.965027, -19.929169 ], [ -144.958344, -19.895283 ], [ -144.95639, -19.898056 ], [ -144.95224, -19.901669 ], [ -144.951111, -19.905834 ], [ -144.956146, -19.923332 ] ] ], [ [ [ -150.648071, -17.662498 ], [ -150.6539, -17.663338 ], [ -150.66449, -17.659447 ], [ -150.670013, -17.65139 ], [ -150.669464, -17.645283 ], [ -150.661682, -17.639172 ], [ -150.655853, -17.638332 ], [ -150.649445, -17.639442 ], [ -150.645294, -17.642498 ], [ -150.642242, -17.64695 ], [ -150.642792, -17.653053 ], [ -150.648071, -17.662498 ] ] ], [ [ [ -149.211426, -17.733891 ], [ -149.204163, -17.734447 ], [ -149.191681, -17.733334 ], [ -149.187256, -17.730831 ], [ -149.181976, -17.729164 ], [ -149.17807, -17.732224 ], [ -149.174713, -17.736115 ], [ -149.162231, -17.751392 ], [ -149.154724, -17.764446 ], [ -149.148926, -17.779449 ], [ -149.147827, -17.784451 ], [ -149.146393, -17.802223 ], [ -149.146973, -17.80917 ], [ -149.152222, -17.833614 ], [ -149.157806, -17.849728 ], [ -149.165588, -17.863613 ], [ -149.174164, -17.869167 ], [ -149.179199, -17.870834 ], [ -149.258087, -17.852779 ], [ -149.27005, -17.849728 ], [ -149.275024, -17.847221 ], [ -149.2789, -17.84417 ], [ -149.28894, -17.833057 ], [ -149.295319, -17.824722 ], [ -149.300598, -17.816944 ], [ -149.369476, -17.738892 ], [ -149.378601, -17.74361 ], [ -149.420868, -17.756111 ], [ -149.47168, -17.766396 ], [ -149.484711, -17.766949 ], [ -149.49057, -17.765003 ], [ -149.590576, -17.711391 ], [ -149.638062, -17.628059 ], [ -149.639771, -17.623894 ], [ -149.641693, -17.611946 ], [ -149.641418, -17.592777 ], [ -149.63559, -17.561668 ], [ -149.632507, -17.549999 ], [ -149.625824, -17.542229 ], [ -149.621948, -17.539169 ], [ -149.593323, -17.51889 ], [ -149.588928, -17.516396 ], [ -149.583649, -17.514729 ], [ -149.495026, -17.493893 ], [ -149.489197, -17.49361 ], [ -149.449982, -17.499443 ], [ -149.414734, -17.509171 ], [ -149.373627, -17.526947 ], [ -149.359161, -17.534451 ], [ -149.350281, -17.540562 ], [ -149.346954, -17.543613 ], [ -149.332764, -17.570278 ], [ -149.32666, -17.592224 ], [ -149.323334, -17.6525 ], [ -149.32309, -17.671112 ], [ -149.324188, -17.684727 ], [ -149.323883, -17.690834 ], [ -149.32309, -17.696671 ], [ -149.321381, -17.701389 ], [ -149.318054, -17.705276 ], [ -149.310028, -17.711391 ], [ -149.304993, -17.713886 ], [ -149.29306, -17.717503 ], [ -149.23056, -17.730278 ], [ -149.211426, -17.733891 ] ] ], [ [ [ -149.848602, -17.573612 ], [ -149.854431, -17.574448 ], [ -149.868347, -17.568336 ], [ -149.878052, -17.563618 ], [ -149.925049, -17.525284 ], [ -149.93808, -17.509727 ], [ -149.941681, -17.500278 ], [ -149.941681, -17.494167 ], [ -149.937256, -17.484165 ], [ -149.922791, -17.477779 ], [ -149.911133, -17.476112 ], [ -149.797546, -17.466946 ], [ -149.791718, -17.466663 ], [ -149.786133, -17.46917 ], [ -149.784454, -17.473331 ], [ -149.782501, -17.484722 ], [ -149.783936, -17.490833 ], [ -149.797241, -17.525558 ], [ -149.799744, -17.530006 ], [ -149.843323, -17.571388 ], [ -149.848602, -17.573612 ] ] ], [ [ [ -149.532257, -16.974445 ], [ -149.536682, -16.976948 ], [ -149.54306, -16.974998 ], [ -149.545563, -16.970554 ], [ -149.544189, -16.964443 ], [ -149.539734, -16.961948 ], [ -149.535553, -16.964443 ], [ -149.533356, -16.969444 ], [ -149.532257, -16.974445 ] ] ], [ [ [ -149.572266, -16.969723 ], [ -149.584747, -16.981113 ], [ -149.59198, -16.980003 ], [ -149.594452, -16.96917 ], [ -149.592773, -16.964725 ], [ -149.586121, -16.956108 ], [ -149.581696, -16.954449 ], [ -149.575012, -16.954449 ], [ -149.57196, -16.958057 ], [ -149.570831, -16.963615 ], [ -149.572266, -16.969723 ] ] ], [ [ [ -150.998322, -16.824169 ], [ -151.01059, -16.825832 ], [ -151.030029, -16.808891 ], [ -151.033936, -16.805283 ], [ -151.036438, -16.801666 ], [ -151.03894, -16.797222 ], [ -151.039734, -16.792229 ], [ -151.040039, -16.786118 ], [ -151.038605, -16.779167 ], [ -151.03476, -16.776115 ], [ -150.994476, -16.762505 ], [ -150.987518, -16.763889 ], [ -150.978333, -16.774723 ], [ -150.972504, -16.783058 ], [ -150.970306, -16.788055 ], [ -150.969177, -16.793056 ], [ -150.971375, -16.798889 ], [ -150.998322, -16.824169 ] ] ], [ [ [ -151.40033, -16.888332 ], [ -151.444489, -16.904449 ], [ -151.46225, -16.90361 ], [ -151.468628, -16.902225 ], [ -151.473602, -16.899723 ], [ -151.476654, -16.895283 ], [ -151.491699, -16.849171 ], [ -151.497772, -16.787228 ], [ -151.497772, -16.780834 ], [ -151.491364, -16.760002 ], [ -151.487518, -16.749443 ], [ -151.475037, -16.740276 ], [ -151.470001, -16.739166 ], [ -151.433075, -16.743893 ], [ -151.428894, -16.747219 ], [ -151.352783, -16.843616 ], [ -151.349457, -16.848061 ], [ -151.348602, -16.853615 ], [ -151.349152, -16.860561 ], [ -151.353088, -16.863613 ], [ -151.40033, -16.888332 ] ] ], [ [ [ -151.03833, -16.769726 ], [ -151.044769, -16.769726 ], [ -151.048096, -16.765282 ], [ -151.050842, -16.755283 ], [ -151.05249, -16.744167 ], [ -151.051147, -16.730556 ], [ -151.045868, -16.706108 ], [ -151.043884, -16.700832 ], [ -151.037537, -16.693054 ], [ -151.032806, -16.696114 ], [ -151.027802, -16.704166 ], [ -151.012268, -16.729721 ], [ -151.007233, -16.738609 ], [ -151.007233, -16.74472 ], [ -151.011719, -16.754726 ], [ -151.015564, -16.757778 ], [ -151.03833, -16.769726 ] ] ], [ [ [ -151.458344, -16.673332 ], [ -151.463348, -16.678333 ], [ -151.504486, -16.663612 ], [ -151.533081, -16.648056 ], [ -151.537781, -16.644726 ], [ -151.54364, -16.636665 ], [ -151.543335, -16.627777 ], [ -151.535553, -16.593334 ], [ -151.532257, -16.589443 ], [ -151.527802, -16.586948 ], [ -151.482483, -16.580833 ], [ -151.476105, -16.581947 ], [ -151.445038, -16.595837 ], [ -151.441101, -16.599171 ], [ -151.436951, -16.608337 ], [ -151.436157, -16.613892 ], [ -151.458344, -16.673332 ] ] ], [ [ [ -151.748627, -16.534451 ], [ -151.753937, -16.536118 ], [ -151.760284, -16.534168 ], [ -151.784454, -16.503616 ], [ -151.786987, -16.499168 ], [ -151.775879, -16.473331 ], [ -151.769196, -16.473888 ], [ -151.763641, -16.47583 ], [ -151.745544, -16.487225 ], [ -151.742249, -16.490833 ], [ -151.741364, -16.49667 ], [ -151.741699, -16.521389 ], [ -151.742798, -16.5275 ], [ -151.748627, -16.534451 ] ] ], [ [ [ -146.335846, -16.164722 ], [ -146.351959, -16.166389 ], [ -146.358917, -16.165836 ], [ -146.383911, -16.160831 ], [ -146.387817, -16.158337 ], [ -146.390564, -16.154167 ], [ -146.395844, -16.139172 ], [ -146.396698, -16.133614 ], [ -146.396393, -16.126945 ], [ -146.39447, -16.121387 ], [ -146.38446, -16.110279 ], [ -146.374695, -16.106388 ], [ -146.355835, -16.104172 ], [ -146.348602, -16.104721 ], [ -146.343079, -16.106388 ], [ -146.334991, -16.113056 ], [ -146.329712, -16.127228 ], [ -146.327484, -16.138332 ], [ -146.32724, -16.144726 ], [ -146.328918, -16.157501 ], [ -146.332214, -16.161671 ], [ -146.335846, -16.164722 ] ] ], [ [ [ -148.23526, -15.848612 ], [ -148.240265, -15.849443 ], [ -148.247528, -15.848888 ], [ -148.253387, -15.849998 ], [ -148.26532, -15.846947 ], [ -148.271698, -15.839443 ], [ -148.281708, -15.822224 ], [ -148.286133, -15.813055 ], [ -148.285553, -15.80611 ], [ -148.28363, -15.800835 ], [ -148.279724, -15.797503 ], [ -148.273376, -15.797503 ], [ -148.267792, -15.79917 ], [ -148.257782, -15.81028 ], [ -148.255585, -15.815277 ], [ -148.252838, -15.818892 ], [ -148.25116, -15.823891 ], [ -148.247772, -15.827499 ], [ -148.232483, -15.834444 ], [ -148.230835, -15.839169 ], [ -148.231934, -15.843889 ], [ -148.23526, -15.848612 ] ] ], [ [ [ -144.621948, -15.74861 ], [ -144.629974, -15.751667 ], [ -144.636963, -15.750559 ], [ -144.64447, -15.743891 ], [ -144.646393, -15.73889 ], [ -144.648376, -15.728613 ], [ -144.646698, -15.722502 ], [ -144.641113, -15.713057 ], [ -144.638062, -15.709999 ], [ -144.633667, -15.708055 ], [ -144.628052, -15.710556 ], [ -144.624695, -15.714169 ], [ -144.619476, -15.721947 ], [ -144.617493, -15.726946 ], [ -144.616669, -15.7325 ], [ -144.616943, -15.739445 ], [ -144.618896, -15.744722 ], [ -144.621948, -15.74861 ] ] ], [ [ [ -138.656708, -10.549725 ], [ -138.662781, -10.55028 ], [ -138.668884, -10.549725 ], [ -138.673096, -10.546947 ], [ -138.691406, -10.531389 ], [ -138.695038, -10.528057 ], [ -138.696381, -10.522503 ], [ -138.698334, -10.433613 ], [ -138.695587, -10.431112 ], [ -138.686707, -10.428888 ], [ -138.680573, -10.428333 ], [ -138.668884, -10.428888 ], [ -138.6539, -10.433058 ], [ -138.635284, -10.441944 ], [ -138.625824, -10.45278 ], [ -138.618347, -10.465555 ], [ -138.611969, -10.486668 ], [ -138.611969, -10.498888 ], [ -138.616119, -10.515001 ], [ -138.623627, -10.528057 ], [ -138.636719, -10.542225 ], [ -138.640869, -10.545 ], [ -138.645599, -10.546947 ], [ -138.656708, -10.549725 ] ] ], [ [ [ -139.107483, -9.978058 ], [ -139.130859, -10.016392 ], [ -139.13504, -10.015001 ], [ -139.138367, -10.011393 ], [ -139.143097, -9.995832 ], [ -139.145294, -9.977499 ], [ -139.130859, -9.913055 ], [ -139.125824, -9.906113 ], [ -139.114441, -9.897223 ], [ -139.108917, -9.896112 ], [ -139.091675, -9.893892 ], [ -139.080017, -9.896112 ], [ -139.056122, -9.908892 ], [ -139.047791, -9.914167 ], [ -139.045319, -9.918335 ], [ -139.045319, -9.923891 ], [ -139.047791, -9.927778 ], [ -139.058929, -9.944168 ], [ -139.062256, -9.9475 ], [ -139.06781, -9.948891 ], [ -139.074738, -9.948891 ], [ -139.084991, -9.952501 ], [ -139.095856, -9.961946 ], [ -139.107483, -9.978058 ] ] ], [ [ [ -138.955261, -9.743055 ], [ -138.89032, -9.757223 ], [ -138.850586, -9.756111 ], [ -138.840271, -9.752501 ], [ -138.83197, -9.747223 ], [ -138.825317, -9.740276 ], [ -138.815002, -9.736946 ], [ -138.810028, -9.73889 ], [ -138.809479, -9.744999 ], [ -138.810028, -9.751114 ], [ -138.812256, -9.756111 ], [ -138.818909, -9.762779 ], [ -138.83197, -9.770836 ], [ -138.849152, -9.781115 ], [ -138.893097, -9.805555 ], [ -138.898621, -9.806946 ], [ -138.910858, -9.808336 ], [ -138.979431, -9.815001 ], [ -139.0, -9.815001 ], [ -139.010834, -9.8125 ], [ -139.015564, -9.810278 ], [ -139.026672, -9.807501 ], [ -139.032806, -9.806946 ], [ -139.045868, -9.807501 ], [ -139.051392, -9.808891 ], [ -139.056122, -9.811113 ], [ -139.06308, -9.817778 ], [ -139.06308, -9.823334 ], [ -139.054749, -9.859999 ], [ -139.108917, -9.846945 ], [ -139.119141, -9.843613 ], [ -139.128906, -9.83889 ], [ -139.141113, -9.830833 ], [ -139.151428, -9.820555 ], [ -139.167816, -9.796114 ], [ -139.169769, -9.791391 ], [ -139.172546, -9.780281 ], [ -139.172546, -9.773613 ], [ -139.171967, -9.768892 ], [ -139.167267, -9.76 ], [ -139.049164, -9.696114 ], [ -139.039734, -9.694723 ], [ -139.00473, -9.696947 ], [ -138.979431, -9.705557 ], [ -138.971924, -9.711666 ], [ -138.967773, -9.72139 ], [ -138.969757, -9.723335 ], [ -138.958893, -9.739723 ], [ -138.955261, -9.743055 ] ] ], [ [ [ -140.07724, -9.450556 ], [ -140.089478, -9.451946 ], [ -140.099152, -9.447779 ], [ -140.105835, -9.441111 ], [ -140.123077, -9.417225 ], [ -140.147827, -9.380556 ], [ -140.137512, -9.362223 ], [ -140.127228, -9.344999 ], [ -140.123627, -9.341669 ], [ -140.091675, -9.326111 ], [ -140.086121, -9.324724 ], [ -140.080597, -9.324724 ], [ -140.075012, -9.326111 ], [ -140.071136, -9.328888 ], [ -140.041382, -9.351389 ], [ -140.037537, -9.364723 ], [ -140.036682, -9.381943 ], [ -140.036682, -9.388613 ], [ -140.038086, -9.394167 ], [ -140.055878, -9.43778 ], [ -140.063324, -9.44389 ], [ -140.071686, -9.449169 ], [ -140.07724, -9.450556 ] ] ], [ [ [ -139.58252, -8.87361 ], [ -139.578369, -8.875 ], [ -139.56665, -8.873055 ], [ -139.552246, -8.866945 ], [ -139.546112, -8.866388 ], [ -139.537231, -8.876389 ], [ -139.52005, -8.880001 ], [ -139.51532, -8.884726 ], [ -139.511719, -8.886669 ], [ -139.508362, -8.890003 ], [ -139.505005, -8.90028 ], [ -139.502838, -8.911945 ], [ -139.504181, -8.917225 ], [ -139.506989, -8.921389 ], [ -139.51532, -8.926945 ], [ -139.526978, -8.927502 ], [ -139.539185, -8.926392 ], [ -139.55307, -8.926392 ], [ -139.571381, -8.928335 ], [ -139.593323, -8.933611 ], [ -139.601654, -8.939167 ], [ -139.611969, -8.95639 ], [ -139.610535, -8.94389 ], [ -139.613312, -8.933058 ], [ -139.621399, -8.920835 ], [ -139.627472, -8.913336 ], [ -139.628906, -8.90778 ], [ -139.628906, -8.902502 ], [ -139.626923, -8.897503 ], [ -139.623627, -8.894167 ], [ -139.606934, -8.883333 ], [ -139.601654, -8.875 ], [ -139.597504, -8.865555 ], [ -139.594757, -8.861391 ], [ -139.590576, -8.861391 ], [ -139.58252, -8.87361 ] ] ], [ [ [ -140.026428, -8.901112 ], [ -140.07782, -8.918058 ], [ -140.088043, -8.921389 ], [ -140.093628, -8.922779 ], [ -140.100586, -8.922779 ], [ -140.104431, -8.920002 ], [ -140.107239, -8.916113 ], [ -140.11972, -8.918892 ], [ -140.166962, -8.933058 ], [ -140.175842, -8.93778 ], [ -140.177826, -8.942501 ], [ -140.177826, -8.95639 ], [ -140.189453, -8.954166 ], [ -140.205841, -8.944723 ], [ -140.223053, -8.934444 ], [ -140.228638, -8.926392 ], [ -140.23056, -8.921389 ], [ -140.256134, -8.830833 ], [ -140.256134, -8.823891 ], [ -140.253387, -8.813055 ], [ -140.249756, -8.802778 ], [ -140.245026, -8.793892 ], [ -140.236664, -8.783892 ], [ -140.227783, -8.778889 ], [ -140.222504, -8.777502 ], [ -140.068909, -8.811668 ], [ -140.042816, -8.83028 ], [ -140.01947, -8.847778 ], [ -140.016113, -8.851389 ], [ -140.014191, -8.85611 ], [ -140.011963, -8.8675 ], [ -140.011963, -8.874445 ], [ -140.014191, -8.886112 ], [ -140.016113, -8.890835 ], [ -140.01889, -8.895002 ], [ -140.026428, -8.901112 ] ] ], [ [ [ -140.704712, -8.044168 ], [ -140.710297, -8.044168 ], [ -140.719177, -8.039167 ], [ -140.721375, -8.034445 ], [ -140.723907, -8.023613 ], [ -140.722809, -8.004446 ], [ -140.7164, -7.979168 ], [ -140.712494, -7.969723 ], [ -140.709747, -7.965556 ], [ -140.704712, -7.963335 ], [ -140.665833, -7.954446 ], [ -140.642548, -7.957223 ], [ -140.637817, -7.959446 ], [ -140.636963, -7.964167 ], [ -140.641113, -7.966946 ], [ -140.667816, -7.978612 ], [ -140.704712, -8.044168 ] ] ], [ [ [ -140.584991, -7.92389 ], [ -140.591675, -7.92389 ], [ -140.603333, -7.921668 ], [ -140.607483, -7.919168 ], [ -140.60614, -7.913611 ], [ -140.569153, -7.888889 ], [ -140.56308, -7.888333 ], [ -140.559479, -7.891668 ], [ -140.558929, -7.897779 ], [ -140.559479, -7.903889 ], [ -140.561707, -7.908891 ], [ -140.571136, -7.916946 ], [ -140.579468, -7.922501 ], [ -140.584991, -7.92389 ] ] ] ] } },
{ "type": "Feature", "properties": { "FIPS": "NE", "ISO2": "NU", "ISO3": "NIU", "UN": 570, "NAME": "Niue", "AREA": 26, "POP2005": 1632, "REGION": 9, "SUBREGION": 61, "LON": -169.869, "LAT": -19.052 }, "geometry": { "type": "MultiPolygon", "coordinates": [ [ [ [ -169.89389, -19.145557 ], [ -169.930878, -19.124443 ], [ -169.951416, -19.076389 ], [ -169.953064, -19.070278 ], [ -169.931671, -19.016666 ], [ -169.928894, -19.010559 ], [ -169.894745, -18.97028 ], [ -169.884766, -18.963333 ], [ -169.868896, -18.963615 ], [ -169.817505, -18.96833 ], [ -169.812775, -18.972221 ], [ -169.781708, -19.062778 ], [ -169.781403, -19.067783 ], [ -169.798096, -19.087223 ], [ -169.824432, -19.110832 ], [ -169.850281, -19.125835 ], [ -169.859161, -19.130554 ], [ -169.888062, -19.144447 ], [ -169.89389, -19.145557 ] ] ] ] } },
{ "type": "Feature", "properties": { "FIPS": "TL", "ISO2": "TK", "ISO3": "TKL", "UN": 772, "NAME": "Tokelau", "AREA": 1, "POP2005": 1401, "REGION": 9, "SUBREGION": 61, "LON": -171.853, "LAT": -9.193 }, "geometry": { "type": "MultiPolygon", "coordinates": [ [ [ [ -171.214722, -9.377499 ], [ -171.219177, -9.381111 ], [ -171.223907, -9.378889 ], [ -171.23056, -9.355556 ], [ -171.22998, -9.348057 ], [ -171.224701, -9.345556 ], [ -171.218628, -9.346945 ], [ -171.215576, -9.351112 ], [ -171.211426, -9.363056 ], [ -171.214722, -9.377499 ] ] ], [ [ [ -171.843079, -9.207502 ], [ -171.844452, -9.214167 ], [ -171.848053, -9.218889 ], [ -171.853638, -9.218334 ], [ -171.856766, -9.212779 ], [ -171.858032, -9.209723 ], [ -171.859161, -9.209723 ], [ -171.860535, -9.206667 ], [ -171.862518, -9.190279 ], [ -171.864746, -9.181114 ], [ -171.862213, -9.177778 ], [ -171.86142, -9.174446 ], [ -171.858368, -9.170555 ], [ -171.853882, -9.168058 ], [ -171.850006, -9.169722 ], [ -171.847504, -9.174168 ], [ -171.844757, -9.184723 ], [ -171.844757, -9.190834 ], [ -171.843628, -9.194447 ], [ -171.843079, -9.207502 ] ] ], [ [ [ -172.483917, -8.587221 ], [ -172.488617, -8.5875 ], [ -172.493042, -8.582502 ], [ -172.49942, -8.566111 ], [ -172.500336, -8.560556 ], [ -172.496979, -8.553888 ], [ -172.492249, -8.553614 ], [ -172.488892, -8.555834 ], [ -172.483612, -8.566666 ], [ -172.481934, -8.580557 ], [ -172.483917, -8.587221 ] ] ] ] } },
{ "type": "Feature", "properties": { "FIPS": "TN", "ISO2": "TO", "ISO3": "TON", "UN": 776, "NAME": "Tonga", "AREA": 72, "POP2005": 99361, "REGION": 9, "SUBREGION": 61, "LON": -175.185, "LAT": -21.202 }, "geometry": { "type": "MultiPolygon", "coordinates": [ [ [ [ -174.910858, -21.426666 ], [ -174.917267, -21.454166 ], [ -174.924469, -21.452225 ], [ -174.933929, -21.446114 ], [ -174.96582, -21.417778 ], [ -174.973602, -21.391392 ], [ -174.974701, -21.365833 ], [ -174.973907, -21.358894 ], [ -174.970551, -21.353889 ], [ -174.935272, -21.324722 ], [ -174.911438, -21.30611 ], [ -174.910858, -21.426666 ] ] ], [ [ [ -175.145844, -21.178059 ], [ -175.141693, -21.178616 ], [ -175.13504, -21.173058 ], [ -175.131958, -21.163055 ], [ -175.131958, -21.155277 ], [ -175.129456, -21.144726 ], [ -175.123322, -21.134998 ], [ -175.119476, -21.132504 ], [ -175.107239, -21.128059 ], [ -175.093628, -21.125 ], [ -175.07309, -21.124168 ], [ -175.066986, -21.124725 ], [ -175.060822, -21.127228 ], [ -175.050293, -21.134445 ], [ -175.047241, -21.139442 ], [ -175.045563, -21.145832 ], [ -175.046417, -21.1525 ], [ -175.051697, -21.161671 ], [ -175.118042, -21.260284 ], [ -175.123627, -21.263889 ], [ -175.13504, -21.26778 ], [ -175.145294, -21.268063 ], [ -175.186401, -21.252785 ], [ -175.314453, -21.18 ], [ -175.323639, -21.174442 ], [ -175.336426, -21.161671 ], [ -175.35141, -21.143333 ], [ -175.356934, -21.133888 ], [ -175.358032, -21.129444 ], [ -175.360535, -21.102505 ], [ -175.359467, -21.099171 ], [ -175.35498, -21.091393 ], [ -175.35141, -21.086117 ], [ -175.343079, -21.076672 ], [ -175.339172, -21.073055 ], [ -175.316101, -21.064728 ], [ -175.3125, -21.063618 ], [ -175.305298, -21.065002 ], [ -175.301941, -21.068058 ], [ -175.302246, -21.071388 ], [ -175.304749, -21.074448 ], [ -175.276672, -21.125 ], [ -175.152222, -21.175556 ], [ -175.145844, -21.178059 ] ] ], [ [ [ -174.760834, -20.27639 ], [ -174.767548, -20.278057 ], [ -174.777527, -20.275558 ], [ -174.785309, -20.271667 ], [ -174.78833, -20.266396 ], [ -174.795868, -20.245277 ], [ -174.795319, -20.238609 ], [ -174.791962, -20.234722 ], [ -174.786438, -20.23167 ], [ -174.779175, -20.230831 ], [ -174.765564, -20.234722 ], [ -174.76004, -20.237225 ], [ -174.756683, -20.242496 ], [ -174.756134, -20.264446 ], [ -174.758362, -20.272507 ], [ -174.760834, -20.27639 ] ] ], [ [ [ -174.41394, -19.926666 ], [ -174.41864, -19.928333 ], [ -174.422791, -19.927776 ], [ -174.42392, -19.914722 ], [ -174.422546, -19.910004 ], [ -174.420013, -19.90556 ], [ -174.405273, -19.888058 ], [ -174.401123, -19.883614 ], [ -174.395844, -19.880554 ], [ -174.390869, -19.881668 ], [ -174.387512, -19.886948 ], [ -174.386719, -19.89389 ], [ -174.388947, -19.900558 ], [ -174.392792, -19.905003 ], [ -174.41394, -19.926666 ] ] ], [ [ [ -174.318604, -19.821945 ], [ -174.327484, -19.825279 ], [ -174.333313, -19.824722 ], [ -174.348053, -19.818611 ], [ -174.353088, -19.815559 ], [ -174.35498, -19.811951 ], [ -174.354431, -19.806393 ], [ -174.325867, -19.768333 ], [ -174.32254, -19.764446 ], [ -174.315857, -19.764172 ], [ -174.309723, -19.766949 ], [ -174.306427, -19.77195 ], [ -174.311707, -19.811394 ], [ -174.314453, -19.817226 ], [ -174.318604, -19.821945 ] ] ], [ [ [ -175.056671, -19.800838 ], [ -175.063324, -19.800838 ], [ -175.069733, -19.798889 ], [ -175.07724, -19.793613 ], [ -175.080933, -19.789352 ], [ -175.083893, -19.786118 ], [ -175.085541, -19.782501 ], [ -175.0914, -19.768063 ], [ -175.098602, -19.749725 ], [ -175.097809, -19.741386 ], [ -175.090271, -19.711948 ], [ -175.086945, -19.708057 ], [ -175.081696, -19.70639 ], [ -175.078369, -19.708057 ], [ -175.058929, -19.71806 ], [ -175.054749, -19.721947 ], [ -175.050293, -19.728336 ], [ -175.043884, -19.759171 ], [ -175.042511, -19.781391 ], [ -175.042267, -19.787502 ], [ -175.044189, -19.792229 ], [ -175.047546, -19.796112 ], [ -175.051392, -19.799171 ], [ -175.056671, -19.800838 ] ] ], [ [ [ -174.272522, -19.752785 ], [ -174.279175, -19.753616 ], [ -174.292816, -19.751118 ], [ -174.299164, -19.748611 ], [ -174.304749, -19.74472 ], [ -174.30722, -19.740833 ], [ -174.305298, -19.736942 ], [ -174.261719, -19.691113 ], [ -174.256134, -19.688053 ], [ -174.250854, -19.692226 ], [ -174.247528, -19.697224 ], [ -174.249176, -19.707226 ], [ -174.263062, -19.74472 ], [ -174.266449, -19.75 ], [ -174.272522, -19.752785 ] ] ], [ [ [ -175.018341, -19.691387 ], [ -175.021149, -19.692497 ], [ -175.025574, -19.691944 ], [ -175.032043, -19.68877 ], [ -175.033936, -19.686668 ], [ -175.035004, -19.683609 ], [ -175.036133, -19.679443 ], [ -175.035858, -19.676666 ], [ -175.031403, -19.668056 ], [ -175.02533, -19.659721 ], [ -175.01889, -19.654167 ], [ -175.015015, -19.651669 ], [ -175.01059, -19.65139 ], [ -175.005585, -19.6525 ], [ -175.003082, -19.656944 ], [ -175.002838, -19.660278 ], [ -175.003937, -19.664448 ], [ -175.013947, -19.685558 ], [ -175.018341, -19.691387 ] ] ], [ [ [ -174.244476, -19.656113 ], [ -174.250336, -19.657227 ], [ -174.260834, -19.651943 ], [ -174.273926, -19.643333 ], [ -174.281952, -19.634445 ], [ -174.290588, -19.61861 ], [ -174.293884, -19.607227 ], [ -174.293884, -19.601112 ], [ -174.291962, -19.594444 ], [ -174.286438, -19.591393 ], [ -174.280029, -19.592777 ], [ -174.241699, -19.642776 ], [ -174.239197, -19.64695 ], [ -174.238892, -19.651115 ], [ -174.24057, -19.654449 ], [ -174.244476, -19.656113 ] ] ], [ [ [ -174.646973, -18.83028 ], [ -174.653656, -18.83028 ], [ -174.666962, -18.825832 ], [ -174.673096, -18.812778 ], [ -174.675049, -18.804447 ], [ -174.674164, -18.79417 ], [ -174.670868, -18.790279 ], [ -174.665283, -18.787228 ], [ -174.655609, -18.783894 ], [ -174.64978, -18.783058 ], [ -174.645599, -18.785561 ], [ -174.62442, -18.806667 ], [ -174.623077, -18.809444 ], [ -174.62442, -18.814167 ], [ -174.63031, -18.823338 ], [ -174.638611, -18.827499 ], [ -174.646973, -18.83028 ] ] ], [ [ [ -174.061401, -18.704723 ], [ -174.06665, -18.70639 ], [ -174.090271, -18.703056 ], [ -174.09613, -18.701115 ], [ -174.097809, -18.696388 ], [ -174.094177, -18.691113 ], [ -174.085846, -18.68417 ], [ -174.079712, -18.681393 ], [ -174.073639, -18.68111 ], [ -174.068909, -18.68222 ], [ -174.065552, -18.687225 ], [ -174.061707, -18.698608 ], [ -174.061401, -18.704723 ] ] ], [ [ [ -174.019745, -18.71722 ], [ -174.0242, -18.719723 ], [ -174.033356, -18.715553 ], [ -174.03476, -18.713886 ], [ -174.044464, -18.6875 ], [ -174.045013, -18.683609 ], [ -174.043335, -18.680836 ], [ -174.041138, -18.680283 ], [ -174.037537, -18.680836 ], [ -174.029724, -18.68417 ], [ -174.019196, -18.694447 ], [ -174.015015, -18.705276 ], [ -174.016449, -18.711948 ], [ -174.019745, -18.71722 ] ] ], [ [ [ -174.089722, -18.674171 ], [ -174.123871, -18.704449 ], [ -174.128052, -18.703335 ], [ -174.128357, -18.697224 ], [ -174.127808, -18.690277 ], [ -174.126373, -18.682777 ], [ -174.123627, -18.677502 ], [ -174.115814, -18.671391 ], [ -174.105835, -18.666664 ], [ -174.091095, -18.663887 ], [ -174.085297, -18.665554 ], [ -174.0867, -18.67028 ], [ -174.089722, -18.674171 ] ] ], [ [ [ -173.910553, -18.638058 ], [ -173.986969, -18.68417 ], [ -174.054443, -18.669724 ], [ -174.061951, -18.66222 ], [ -174.064209, -18.656387 ], [ -174.070038, -18.639442 ], [ -174.070587, -18.632504 ], [ -174.068054, -18.626392 ], [ -174.0625, -18.623611 ], [ -174.05722, -18.621117 ], [ -174.049469, -18.621117 ], [ -174.041382, -18.621117 ], [ -174.033356, -18.621117 ], [ -174.027222, -18.618893 ], [ -174.023376, -18.614449 ], [ -174.017242, -18.603054 ], [ -174.013062, -18.589725 ], [ -174.005585, -18.580006 ], [ -174.000854, -18.576389 ], [ -173.995544, -18.573338 ], [ -173.989441, -18.571117 ], [ -173.967529, -18.568058 ], [ -173.939209, -18.568893 ], [ -173.935577, -18.570835 ], [ -173.931671, -18.575279 ], [ -173.916687, -18.599728 ], [ -173.907501, -18.62056 ], [ -173.906158, -18.626945 ], [ -173.907257, -18.63306 ], [ -173.910553, -18.638058 ] ] ], [ [ [ -175.644745, -15.629168 ], [ -175.654724, -15.63028 ], [ -175.665833, -15.627222 ], [ -175.670013, -15.624166 ], [ -175.679199, -15.615002 ], [ -175.6828, -15.607779 ], [ -175.684723, -15.593613 ], [ -175.683929, -15.589724 ], [ -175.67807, -15.576389 ], [ -175.671661, -15.568611 ], [ -175.667816, -15.566113 ], [ -175.627228, -15.56028 ], [ -175.621399, -15.560835 ], [ -175.616669, -15.563334 ], [ -175.608917, -15.570833 ], [ -175.607239, -15.584999 ], [ -175.609467, -15.600555 ], [ -175.611969, -15.604445 ], [ -175.636414, -15.625 ], [ -175.644745, -15.629168 ] ] ] ] } },
{ "type": "Feature", "properties": { "FIPS": "TV", "ISO2": "TV", "ISO3": "TUV", "UN": 798, "NAME": "Tuvalu", "AREA": 3, "POP2005": 10441, "REGION": 9, "SUBREGION": 61, "LON": 179.219, "LAT": -8.514 }, "geometry": { "type": "MultiPolygon", "coordinates": [ [ [ [ 179.222366, -8.554146 ], [ 179.213226, -8.561292 ], [ 179.198151, -8.469986 ], [ 179.200928, -8.464825 ], [ 179.203705, -8.462443 ], [ 179.206879, -8.464428 ], [ 179.218384000000128, -8.481895 ], [ 179.225143000000116, -8.492217 ], [ 179.231094, -8.50492 ], [ 179.232285, -8.518417 ], [ 179.231491000000119, -8.533503 ], [ 179.228317, -8.543427 ], [ 179.222366, -8.554146 ] ] ], [ [ [ 178.366913, -8.062778 ], [ 178.364136, -8.066666 ], [ 178.35800200000017, -8.066111 ], [ 178.355804, -8.06139 ], [ 178.359955000000127, -8.045 ], [ 178.366058, -8.030834 ], [ 178.36969, -8.0275 ], [ 178.374969, -8.028889 ], [ 178.37439, -8.036388 ], [ 178.366913, -8.062778 ] ] ], [ [ [ 178.397766, -8.015278 ], [ 178.392761, -8.016666 ], [ 178.390259000000128, -8.012501 ], [ 178.39151, -8.0 ], [ 178.394135, -7.995555 ], [ 178.397766, -7.992778 ], [ 178.403046000000131, -7.991388 ], [ 178.40802, -7.993333 ], [ 178.406921000000125, -8.0 ], [ 178.406647, -8.003613 ], [ 178.401642000000152, -8.011946 ], [ 178.397766, -8.015278 ] ] ], [ [ [ 178.700531, -7.482223 ], [ 178.695801, -7.484166 ], [ 178.690247, -7.482778 ], [ 178.687469, -7.478889 ], [ 178.686096000000134, -7.473333 ], [ 178.687469, -7.468056 ], [ 178.690796, -7.464445 ], [ 178.700531, -7.468611 ], [ 178.702759, -7.471945 ], [ 178.703308, -7.478056 ], [ 178.700531, -7.482223 ] ] ], [ [ [ 177.158875, -7.187778 ], [ 177.156647000000135, -7.191944 ], [ 177.150543, -7.191388 ], [ 177.146362000000181, -7.188611 ], [ 177.143585, -7.184444 ], [ 177.141663, -7.179722 ], [ 177.142212, -7.173611 ], [ 177.150543, -7.175 ], [ 177.158875, -7.187778 ] ] ], [ [ [ 176.310242, -6.285556 ], [ 176.306366000000139, -6.288333 ], [ 176.300812000000178, -6.286944 ], [ 176.296631, -6.283333 ], [ 176.295258, -6.278056 ], [ 176.295258, -6.271111 ], [ 176.299988, -6.262501 ], [ 176.303589, -6.258889 ], [ 176.308868, -6.257501 ], [ 176.311646, -6.261667 ], [ 176.314423000000147, -6.276112 ], [ 176.313019, -6.281389 ], [ 176.310242, -6.285556 ] ] ], [ [ [ 177.295807, -6.113889 ], [ 177.290253000000121, -6.114445 ], [ 177.284698000000162, -6.113334 ], [ 177.278046000000131, -6.106389 ], [ 177.278046000000131, -6.099444 ], [ 177.281372000000147, -6.089444 ], [ 177.308868, -6.098889 ], [ 177.308014, -6.105 ], [ 177.304688000000169, -6.108334 ], [ 177.300537, -6.111667 ], [ 177.295807, -6.113889 ] ] ], [ [ [ 176.139709, -5.690556 ], [ 176.136383000000137, -5.693889 ], [ 176.130249, -5.693333 ], [ 176.125244, -5.684444 ], [ 176.126617, -5.679167 ], [ 176.129395000000159, -5.675 ], [ 176.135529, -5.675555 ], [ 176.13916, -5.684444 ], [ 176.139709, -5.690556 ] ] ], [ [ [ 176.08136, -5.665277 ], [ 176.077454000000102, -5.668056 ], [ 176.070526, -5.6675 ], [ 176.066376000000105, -5.665277 ], [ 176.068573, -5.660556 ], [ 176.079407, -5.657778 ], [ 176.083588, -5.660556 ], [ 176.08136, -5.665277 ] ] ] ] } },
{ "type": "Feature", "properties": { "FIPS": "WF", "ISO2": "WF", "ISO3": "WLF", "UN": 876, "NAME": "Wallis and Futuna Islands", "AREA": 14, "POP2005": 15079, "REGION": 9, "SUBREGION": 61, "LON": -178.131, "LAT": -14.289 }, "geometry": { "type": "MultiPolygon", "coordinates": [ [ [ [ -178.042511, -14.319447 ], [ -178.060822, -14.323891 ], [ -178.134216, -14.31778 ], [ -178.140564, -14.316389 ], [ -178.1539, -14.308058 ], [ -178.171112, -14.287781 ], [ -178.177826, -14.278057 ], [ -178.180878, -14.272779 ], [ -178.188324, -14.256111 ], [ -178.191101, -14.243334 ], [ -178.189453, -14.236113 ], [ -178.185577, -14.231668 ], [ -178.177826, -14.233055 ], [ -178.129974, -14.246944 ], [ -178.124695, -14.250278 ], [ -178.044769, -14.314445 ], [ -178.042267, -14.316668 ], [ -178.042511, -14.319447 ] ] ], [ [ [ -176.161438, -13.352777 ], [ -176.165039, -13.353054 ], [ -176.167816, -13.352777 ], [ -176.170319, -13.35111 ], [ -176.177246, -13.341391 ], [ -176.18808, -13.313614 ], [ -176.191101, -13.286945 ], [ -176.185822, -13.257778 ], [ -176.183075, -13.24361 ], [ -176.178345, -13.232224 ], [ -176.160553, -13.21611 ], [ -176.156158, -13.213614 ], [ -176.15033, -13.214169 ], [ -176.145844, -13.218058 ], [ -176.123627, -13.25139 ], [ -176.121948, -13.256392 ], [ -176.121094, -13.263334 ], [ -176.138611, -13.338333 ], [ -176.140564, -13.343613 ], [ -176.14447, -13.346666 ], [ -176.161438, -13.352777 ] ] ] ] } },
{ "type": "Feature", "properties": { "FIPS": "WS", "ISO2": "WS", "ISO3": "WSM", "UN": 882, "NAME": "Samoa", "AREA": 283, "POP2005": 183845, "REGION": 9, "SUBREGION": 61, "LON": -172.414, "LAT": -13.652 }, "geometry": { "type": "MultiPolygon", "coordinates": [ [ [ [ -171.429749, -14.019724 ], [ -171.441986, -14.057503 ], [ -171.465271, -14.052778 ], [ -171.47998, -14.050556 ], [ -171.516663, -14.047779 ], [ -171.524445, -14.047779 ], [ -171.546112, -14.05028 ], [ -171.588928, -14.052502 ], [ -171.648376, -14.05028 ], [ -171.768097, -14.035833 ], [ -171.911133, -14.012503 ], [ -172.04837, -13.914448 ], [ -172.052826, -13.910559 ], [ -172.056976, -13.906113 ], [ -172.060028, -13.900278 ], [ -172.064758, -13.881945 ], [ -172.064758, -13.874443 ], [ -172.061707, -13.869165 ], [ -172.0578, -13.864721 ], [ -172.030853, -13.84111 ], [ -172.027802, -13.839443 ], [ -171.906708, -13.806667 ], [ -171.883911, -13.805555 ], [ -171.822266, -13.807503 ], [ -171.748077, -13.831669 ], [ -171.619141, -13.878613 ], [ -171.446136, -13.9825 ], [ -171.44223, -13.986387 ], [ -171.431976, -13.999443 ], [ -171.429443, -14.005281 ], [ -171.42865, -14.012779 ], [ -171.429749, -14.019724 ] ] ], [ [ [ -172.285858, -13.486387 ], [ -172.222504, -13.563055 ], [ -172.203064, -13.591946 ], [ -172.193359, -13.613335 ], [ -172.168884, -13.677502 ], [ -172.167816, -13.684444 ], [ -172.167816, -13.691389 ], [ -172.210541, -13.805281 ], [ -172.214172, -13.807777 ], [ -172.225037, -13.808889 ], [ -172.251953, -13.807503 ], [ -172.257538, -13.805836 ], [ -172.262268, -13.801947 ], [ -172.393341, -13.79167 ], [ -172.482788, -13.806667 ], [ -172.489197, -13.806946 ], [ -172.508911, -13.806667 ], [ -172.51947, -13.805281 ], [ -172.527222, -13.803888 ], [ -172.532501, -13.800835 ], [ -172.574432, -13.765837 ], [ -172.590027, -13.739721 ], [ -172.691101, -13.62611 ], [ -172.75, -13.575832 ], [ -172.753387, -13.572224 ], [ -172.772827, -13.549999 ], [ -172.779724, -13.539722 ], [ -172.780609, -13.533335 ], [ -172.780304, -13.530003 ], [ -172.77948, -13.527225 ], [ -172.775024, -13.519445 ], [ -172.77005, -13.515556 ], [ -172.758087, -13.511112 ], [ -172.753082, -13.509445 ], [ -172.741699, -13.507504 ], [ -172.736115, -13.509445 ], [ -172.728638, -13.513334 ], [ -172.655273, -13.519169 ], [ -172.596497, -13.509113 ], [ -172.551941, -13.497223 ], [ -172.475281, -13.479721 ], [ -172.391113, -13.464169 ], [ -172.36084, -13.460556 ], [ -172.348358, -13.46139 ], [ -172.311401, -13.469168 ], [ -172.304443, -13.471111 ], [ -172.29892, -13.474169 ], [ -172.289734, -13.481943 ], [ -172.285858, -13.486387 ] ] ] ] } },
{ "type": "Feature", "properties": { "FIPS": "PC", "ISO2": "PN", "ISO3": "PCN", "UN": 612, "NAME": "Pitcairn Islands", "AREA": 0, "POP2005": 5, "REGION": 9, "SUBREGION": 61, "LON": -128.316, "LAT": -24.366 }, "geometry": { "type": "MultiPolygon", "coordinates": [ [ [ [ -130.076935, -25.079723 ], [ -130.08139, -25.082226 ], [ -130.088043, -25.081673 ], [ -130.093323, -25.079723 ], [ -130.10083, -25.076115 ], [ -130.104431, -25.072781 ], [ -130.107483, -25.068058 ], [ -130.107483, -25.063335 ], [ -130.104431, -25.058617 ], [ -130.10083, -25.05584 ], [ -130.093872, -25.055283 ], [ -130.08725, -25.05611 ], [ -130.065002, -25.063335 ], [ -130.061951, -25.066944 ], [ -130.064209, -25.071388 ], [ -130.076935, -25.079723 ] ] ], [ [ [ -124.780853, -24.675835 ], [ -124.787781, -24.676666 ], [ -124.792801, -24.674442 ], [ -124.796661, -24.671112 ], [ -124.796082, -24.667503 ], [ -124.795853, -24.666115 ], [ -124.790573, -24.664165 ], [ -124.783142, -24.662788 ], [ -124.772522, -24.666946 ], [ -124.771133, -24.671112 ], [ -124.775574, -24.673889 ], [ -124.780853, -24.675835 ] ] ], [ [ [ -128.289185, -24.409721 ], [ -128.29306, -24.413055 ], [ -128.29892, -24.412781 ], [ -128.304199, -24.410561 ], [ -128.31308, -24.40472 ], [ -128.32782, -24.390556 ], [ -128.34198, -24.36972 ], [ -128.344177, -24.364723 ], [ -128.346954, -24.353615 ], [ -128.34726, -24.340557 ], [ -128.344757, -24.335838 ], [ -128.336945, -24.329166 ], [ -128.332214, -24.327267 ], [ -128.326935, -24.326115 ], [ -128.313324, -24.325005 ], [ -128.307526, -24.326672 ], [ -128.303894, -24.33028 ], [ -128.299469, -24.338615 ], [ -128.293884, -24.352505 ], [ -128.286682, -24.386391 ], [ -128.285553, -24.398609 ], [ -128.286682, -24.40472 ], [ -128.289185, -24.409721 ] ] ] ] } }
]
}
